NORAD_CAT_ID,OBJECT_NAME,OBJECT_TYPE,EPOCH,MEAN_MOTION,ECCENTRICITY,INCLINATION,RA_OF_ASC_NODE,ARG_OF_PERICENTER,MEAN_ANOMALY,BSTAR,MEAN_MOTION_DOT,MEAN_MOTION_DDOT,TLE_LINE0,TLE_LINE1,TLE_LINE2,SEMIMAJOR_AXIS,PERIOD,APOGEE,PERIGEE,DECAYED
54175.0,STARLINK-5256,PAYLOAD,2023-10-08 16:25:31,15.0886452,0.000164,53.2184,8.0987,92.048,268.07,0.00080387,0.00012537,0.0,0 STARLINK-5256,1 54175U 22141U   23281.68438744  .00012537  00000-0  80387-3 0  9999,2 54175  53.2184   8.0987 0001640  92.0480 268.0700 15.08864520 52552,6917.805,95.436,540.805,538.536,0.0
54175.0,STARLINK-5256,PAYLOAD,2023-10-08 22:47:04,15.08839137,0.000214,53.2187,6.9095,86.4885,273.6351,0.00019169,2.764e-05,0.0,0 STARLINK-5256,1 54175U 22141U   23281.94935335  .00002764  00000-0  19169-3 0  9997,2 54175  53.2187   6.9095 0002140  86.4885 273.6351 15.08839137 52598,6917.883,95.438,541.228,538.268,0.0
54175.0,STARLINK-5256,PAYLOAD,2023-10-09 13:05:32,15.0884253,0.0001887,53.2188,4.2321,79.9466,280.1739,0.00026387,3.914e-05,0.0,0 STARLINK-5256,1 54175U 22141U   23282.54551407  .00003914  00000-0  26387-3 0  9996,2 54175  53.2188   4.2321 0001887  79.9466 280.1739 15.08842530 52685,6917.873,95.437,541.043,538.432,0.0
54175.0,STARLINK-5256,PAYLOAD,2023-10-09 17:51:41,15.08859874,0.0001181,53.2166,3.3386,98.7283,261.3843,0.00072828,0.00011328,0.0,0 STARLINK-5256,1 54175U 22141U   23282.74422641  .00011328  00000-0  72828-3 0  9994,2 54175  53.2166   3.3386 0001181  98.7283 261.3843 15.08859874 52715,6917.82,95.436,540.502,538.868,0.0
54175.0,STARLINK-5256,PAYLOAD,2023-10-10 11:20:55,15.08857652,0.0001597,53.2169,0.0677,96.308,263.8094,0.00062039,9.604e-05,0.0,0 STARLINK-5256,1 54175U 22141U   23283.47286755  .00009604  00000-0  62039-3 0  9996,2 54175  53.2169   0.0677 0001597  96.3080 263.8094 15.08857652 52824,6917.826,95.436,540.796,538.587,0.0
54175.0,STARLINK-5256,PAYLOAD,2023-10-10 12:56:18,15.08868775,0.0001521,53.217,359.771,91.143,268.9737,0.0011285,0.00017732,0.0,0 STARLINK-5256,1 54175U 22141U   23283.53910601  .00017732  00000-0  11285-2 0  9994,2 54175  53.2170 359.7710 0001521  91.1430 268.9737 15.08868775 52836,6917.792,95.436,540.71,538.605,0.0
54175.0,STARLINK-5256,PAYLOAD,2023-10-10 17:42:27,15.08891874,0.0001442,53.2168,358.8797,84.5479,275.5678,0.0028052,0.00044704,0.0,0 STARLINK-5256,1 54175U 22141U   23283.73782187  .00044704  00000-0  28052-2 0  9991,2 54175  53.2168 358.8797 0001442  84.5479 275.5678 15.08891874 52866,6917.722,95.434,540.584,538.589,0.0
54175.0,STARLINK-5256,PAYLOAD,2023-10-11 11:11:43,15.08840394,0.0001409,53.2179,355.6084,103.8303,256.2846,0.0017756,0.00028084,0.0,0 STARLINK-5256,1 54175U 22141U   23284.46647383  .00028084  00000-0  17756-2 0  9992,2 54175  53.2179 355.6084 0001409 103.8303 256.2846 15.08840394 52972,6917.879,95.438,540.719,538.769,0.0
54175.0,STARLINK-5256,PAYLOAD,2023-10-12 04:40:59,15.08826133,0.0001611,53.2173,352.3376,98.2192,261.8983,0.0013874,0.00021853,0.0,0 STARLINK-5256,1 54175U 22141U   23285.19513283  .00021853  00000-0  13874-2 0  9998,2 54175  53.2173 352.3376 0001611  98.2192 261.8983 15.08826133 53084,6917.923,95.438,540.902,538.673,0.0
54175.0,STARLINK-5256,PAYLOAD,2023-10-12 11:02:32,15.0882304,0.000161,53.2178,351.1491,91.8106,268.307,0.0015801,0.00024937,0.0,0 STARLINK-5256,1 54175U 22141U   23285.46009919  .00024937  00000-0  15801-2 0  9992,2 54175  53.2178 351.1491 0001610  91.8106 268.3070 15.08823040 53125,6917.932,95.439,540.911,538.683,0.0
54175.0,STARLINK-5256,PAYLOAD,2023-10-13 04:31:46,15.08870824,0.0001658,53.2177,347.8785,90.0431,270.0751,0.0017486,0.00027674,0.0,0 STARLINK-5256,1 54175U 22141U   23286.18873354  .00027674  00000-0  17486-2 0  9996,2 54175  53.2177 347.8785 0001658  90.0431 270.0751 15.08870824 53236,6917.786,95.436,540.798,538.504,0.0
54175.0,STARLINK-5256,PAYLOAD,2023-10-13 10:53:18,15.08890422,0.0001641,53.218,346.69,85.5836,274.5344,0.0019123,0.0003032,0.0,0 STARLINK-5256,1 54175U 22141U   23286.45368570  .00030320  00000-0  19123-2 0  9997,2 54175  53.2180 346.6900 0001641  85.5836 274.5344 15.08890422 53273,6917.726,95.434,540.726,538.456,0.0
54175.0,STARLINK-5256,PAYLOAD,2023-10-14 04:22:32,15.08879685,0.0001289,53.2178,343.4181,102.3314,257.7822,0.001927,0.00030547,0.0,0 STARLINK-5256,1 54175U 22141U   23287.18231906  .00030547  00000-0  19270-2 0  9994,2 54175  53.2178 343.4181 0001289 102.3314 257.7822 15.08879685 53387,6917.759,95.435,540.516,538.732,0.0
54175.0,STARLINK-5256,PAYLOAD,2023-10-14 10:44:04,15.08857794,0.0001277,53.2179,342.2291,97.9637,262.15,0.002032,0.00032215,0.0,0 STARLINK-5256,1 54175U 22141U   23287.44727761  .00032215  00000-0  20320-2 0  9994,2 54175  53.2179 342.2291 0001277  97.9637 262.1500 15.08857794 53426,6917.826,95.436,540.574,538.808,0.0
54175.0,STARLINK-5256,PAYLOAD,2023-10-14 20:16:23,15.08847058,0.0001617,53.2178,340.4448,93.1921,266.9256,0.0027802,0.00044246,0.0,0 STARLINK-5256,1 54175U 22141U   23287.84471724  .00044246  00000-0  27802-2 0  9992,2 54175  53.2178 340.4448 0001617  93.1921 266.9256 15.08847058 53489,6917.859,95.437,540.842,538.605,0.0
54175.0,STARLINK-5256,PAYLOAD,2023-10-15 02:37:55,15.08859582,0.0001632,53.2192,339.2584,104.0656,256.0518,0.001081,0.00016967,0.0,0 STARLINK-5256,1 54175U 22141U   23288.10967453  .00016967  00000-0  10810-2 0  9991,2 54175  53.2192 339.2584 0001632 104.0656 256.0518 15.08859582 53527,6917.821,95.436,540.815,538.557,0.0
54175.0,STARLINK-5256,PAYLOAD,2023-10-15 10:34:51,15.08852504,0.0001507,53.2188,337.7706,97.406,262.7103,0.0004966,7.627e-05,0.0,0 STARLINK-5256,1 54175U 22141U   23288.44087324  .00007627  00000-0  49660-3 0  9997,2 54175  53.2188 337.7706 0001507  97.4060 262.7103 15.08852504 53572,6917.842,95.437,540.75,538.665,0.0
54175.0,STARLINK-5256,PAYLOAD,2023-10-15 13:45:37,15.08857939,0.0001537,53.2184,337.1743,98.2523,261.8644,0.00055457,8.553e-05,0.0,0 STARLINK-5256,1 54175U 22141U   23288.57335083  .00008553  00000-0  55457-3 0  9999,2 54175  53.2184 337.1743 0001537  98.2523 261.8644 15.08857939 53598,6917.826,95.436,540.754,538.627,0.0
54175.0,STARLINK-5256,PAYLOAD,2023-10-15 20:07:10,15.0882806,0.0001633,53.2178,335.9836,89.2781,270.8398,-7.3718e-05,-1.461e-05,0.0,0 STARLINK-5256,1 54175U 22141U   23288.83831926 -.00001461  00000-0 -73718-4 0  9999,2 54175  53.2178 335.9836 0001633  89.2781 270.8398 15.08828060 53637,6917.917,95.438,540.912,538.652,0.0
54175.0,STARLINK-5256,PAYLOAD,2023-10-16 10:25:39,15.08826793,0.0001514,53.2179,333.3099,98.9837,261.1326,-0.00015389,-2.735e-05,0.0,0 STARLINK-5256,1 54175U 22141U   23289.43448663 -.00002735  00000-0 -15389-3 0  9992,2 54175  53.2179 333.3099 0001514  98.9837 261.1326 15.08826793 53723,6917.921,95.438,540.833,538.738,0.0
54175.0,STARLINK-5256,PAYLOAD,2023-10-17 11:51:49,15.08868312,0.0001506,53.2169,328.5535,100.9309,259.1852,0.0012952,0.00020401,0.0,0 STARLINK-5256,1 54175U 22141U   23290.49432143  .00020401  00000-0  12952-2 0  9996,2 54175  53.2169 328.5535 0001506 100.9309 259.1852 15.08868312 53883,6917.794,95.436,540.701,538.617,0.0
54175.0,STARLINK-5256,PAYLOAD,2023-10-17 19:48:45,15.08854959,0.0001628,53.2169,327.0611,87.6856,272.4322,0.0006399,9.915e-05,0.0,0 STARLINK-5256,1 54175U 22141U   23290.82552342  .00009915  00000-0  63990-3 0  9993,2 54175  53.2169 327.0611 0001628  87.6856 272.4322 15.08854959 53933,6917.835,95.437,540.826,538.573,0.0
54175.0,STARLINK-5256,PAYLOAD,2023-10-18 02:10:17,15.08856718,0.0001931,53.2158,325.8779,78.0985,282.0224,0.00049614,7.62e-05,0.0,0 STARLINK-5256,1 54175U 22141U   23291.09048373  .00007620  00000-0  49614-3 0  9995,2 54175  53.2158 325.8779 0001931  78.0985 282.0224 15.08856718 53973,6917.829,95.436,541.03,538.358,0.0
54175.0,STARLINK-5256,PAYLOAD,2023-10-18 10:07:13,15.08846478,0.0001549,53.2162,324.3873,81.1078,279.009,0.00027243,4.051e-05,0.0,0 STARLINK-5256,1 54175U 22141U   23291.42168484  .00004051  00000-0  27243-3 0  9997,2 54175  53.2162 324.3873 0001549  81.1078 279.0090 15.08846478 54026,6917.861,95.437,540.797,538.654,0.0
54175.0,STARLINK-5256,PAYLOAD,2023-10-18 19:39:32,15.088476,0.0001446,53.216,322.6022,86.5908,273.525,0.0004333,6.616e-05,0.0,0 STARLINK-5256,1 54175U 22141U   23291.81912470  .00006616  00000-0  43330-3 0  9996,2 54175  53.2160 322.6022 0001446  86.5908 273.5250 15.08847600 54089,6917.857,95.437,540.722,538.722,0.0
54175.0,STARLINK-5256,PAYLOAD,2023-10-19 11:33:23,15.08861383,0.0001638,53.2163,319.6269,87.9511,272.1669,0.00087746,0.00013712,0.0,0 STARLINK-5256,1 54175U 22141U   23292.48152075  .00013712  00000-0  87746-3 0  9991,2 54175  53.2163 319.6269 0001638  87.9511 272.1669 15.08861383 54183,6917.815,95.436,540.813,538.547,0.0
54175.0,STARLINK-5256,PAYLOAD,2023-10-19 19:30:19,15.08848569,0.000147,53.2178,318.1417,87.4398,272.6762,0.00032731,4.926e-05,0.0,0 STARLINK-5256,1 54175U 22141U   23292.81272246  .00004926  00000-0  32731-3 0  9992,2 54175  53.2178 318.1417 0001470  87.4398 272.6762 15.08848569 54236,6917.854,95.437,540.736,538.702,0.0
54175.0,STARLINK-5256,PAYLOAD,2023-10-20 11:24:10,15.08843683,0.0001658,53.2173,315.1663,103.0419,257.0758,0.0001756,2.508e-05,0.0,0 STARLINK-5256,1 54175U 22141U   23293.47512304  .00002508  00000-0  17560-3 0  9994,2 54175  53.2173 315.1663 0001658 103.0419 257.0758 15.08843683 54333,6917.869,95.437,540.881,538.587,0.0
54175.0,STARLINK-5256,PAYLOAD,2023-10-21 01:42:39,15.08835453,0.000173,53.2171,312.4889,107.5535,252.5646,2.6284e-05,1.3e-06,0.0,0 STARLINK-5256,1 54175U 22141U   23294.07128799  .00000130  00000-0  26284-4 0  9995,2 54175  53.2171 312.4889 0001730 107.5535 252.5646 15.08835453 54422,6917.894,95.438,540.956,538.562,0.0
54175.0,STARLINK-5256,PAYLOAD,2023-10-21 08:04:11,15.08841731,0.0001604,53.2167,311.2998,97.2693,262.8482,0.0001362,1.88e-05,0.0,0 STARLINK-5256,1 54175U 22141U   23294.33624720  .00001880  00000-0  13620-3 0  9991,2 54175  53.2167 311.2998 0001604  97.2693 262.8482 15.08841731 54467,6917.875,95.437,540.85,538.63,0.0
